HELIOS 2A               
1 28492U 04049A   23008.41549417  .00001696  00000+0  16565-3 0  9997
2 28492  98.2593 326.3390 0015014 125.4015 234.8651 14.93776707965716
SPIRALE A               
1 33751U 09008C   23007.82330077  .00000195  00000+0  74430-3 0  9993
2 33751   2.1083  61.1680 5461985 272.4513  29.1134  4.58902266204209
SPIRALE B               
1 33752U 09008D   23007.73351885  .00002280  00000+0  10055-2 0  9993
2 33752   2.2016   7.7788 6835843   8.5242 358.8344  2.83611960130867
SAPPHIRE                
1 39088U 13009C   23007.81109270  .00000184  00000+0  80438-4 0  9990
2 39088  98.4154 203.3804 0011975  34.2671 325.9284 14.34359815516410
